CCSDS_OMM_VERS = 2.0
CREATION_DATE  = 
ORIGINATOR     = 

OBJECT_NAME    = HULIANWANG DIGUI-82
OBJECT_ID      = 2025-220A
CENTER_NAME    = EARTH
REF_FRAME      = TEME
TIME_SYSTEM    = UTC
MEAN_ELEMENT_THEORY = SGP/SGP4

EPOCH          = 2025-10-25T00:16:59.555424
MEAN_MOTION    = 13.53147382
ECCENTRICITY   = .0001396
INCLINATION    = 86.4924
RA_OF_ASC_NODE = 123.4946
ARG_OF_PERICENTER = 121.8177
MEAN_ANOMALY   = 238.3110

EPHEMERIS_TYPE = 0
CLASSIFICATION_TYPE = U
NORAD_CAT_ID   = 65817
ELEMENT_SET_NO = 999
REV_AT_EPOCH   = 375
BSTAR          = -.17251E-3
MEAN_MOTION_DOT = -.99E-6
MEAN_MOTION_DDOT = 0

CCSDS_OMM_VERS = 2.0
CREATION_DATE  = 
ORIGINATOR     = 

OBJECT_NAME    = HULIANWANG DIGUI-83
OBJECT_ID      = 2025-220B
CENTER_NAME    = EARTH
REF_FRAME      = TEME
TIME_SYSTEM    = UTC
MEAN_ELEMENT_THEORY = SGP/SGP4

EPOCH          = 2025-10-26T01:04:04.309248
MEAN_MOTION    = 13.51070516
ECCENTRICITY   = .0001746
INCLINATION    = 86.4958
RA_OF_ASC_NODE = 123.1357
ARG_OF_PERICENTER = 95.6080
MEAN_ANOMALY   = 264.5268

EPHEMERIS_TYPE = 0
CLASSIFICATION_TYPE = U
NORAD_CAT_ID   = 65818
ELEMENT_SET_NO = 999
REV_AT_EPOCH   = 389
BSTAR          = -.1870187E-3
MEAN_MOTION_DOT = -.105E-5
MEAN_MOTION_DDOT = 0

CCSDS_OMM_VERS = 2.0
CREATION_DATE  = 
ORIGINATOR     = 

OBJECT_NAME    = HULIANWANG DIGUI-84
OBJECT_ID      = 2025-220C
CENTER_NAME    = EARTH
REF_FRAME      = TEME
TIME_SYSTEM    = UTC
MEAN_ELEMENT_THEORY = SGP/SGP4

EPOCH          = 2025-10-25T21:19:16.826880
MEAN_MOTION    = 13.52537739
ECCENTRICITY   = .0001288
INCLINATION    = 86.4888
RA_OF_ASC_NODE = 123.1598
ARG_OF_PERICENTER = 101.2510
MEAN_ANOMALY   = 258.8785

EPHEMERIS_TYPE = 0
CLASSIFICATION_TYPE = U
NORAD_CAT_ID   = 65819
ELEMENT_SET_NO = 999
REV_AT_EPOCH   = 387
BSTAR          = -.20738941E-3
MEAN_MOTION_DOT = -.121E-5
MEAN_MOTION_DDOT = 0

CCSDS_OMM_VERS = 2.0
CREATION_DATE  = 
ORIGINATOR     = 

OBJECT_NAME    = HULIANWANG DIGUI-85
OBJECT_ID      = 2025-220D
CENTER_NAME    = EARTH
REF_FRAME      = TEME
TIME_SYSTEM    = UTC
MEAN_ELEMENT_THEORY = SGP/SGP4

EPOCH          = 2025-10-25T21:17:36.797280
MEAN_MOTION    = 13.51672650
ECCENTRICITY   = .00019757
INCLINATION    = 86.4944
RA_OF_ASC_NODE = 123.1835
ARG_OF_PERICENTER = 147.1096
MEAN_ANOMALY   = 213.0177

EPHEMERIS_TYPE = 0
CLASSIFICATION_TYPE = U
NORAD_CAT_ID   = 65820
ELEMENT_SET_NO = 999
REV_AT_EPOCH   = 387
BSTAR          = -.21503848E-3
MEAN_MOTION_DOT = -.124E-5
MEAN_MOTION_DDOT = 0

CCSDS_OMM_VERS = 2.0
CREATION_DATE  = 
ORIGINATOR     = 

OBJECT_NAME    = HULIANWANG DIGUI-86
OBJECT_ID      = 2025-220E
CENTER_NAME    = EARTH
REF_FRAME      = TEME
TIME_SYSTEM    = UTC
MEAN_ELEMENT_THEORY = SGP/SGP4

EPOCH          = 2025-10-26T18:26:47.293152
MEAN_MOTION    = 13.51057899
ECCENTRICITY   = .0000946
INCLINATION    = 86.4921
RA_OF_ASC_NODE = 122.8557
ARG_OF_PERICENTER = 96.9060
MEAN_ANOMALY   = 263.2196

EPHEMERIS_TYPE = 0
CLASSIFICATION_TYPE = U
NORAD_CAT_ID   = 65821
ELEMENT_SET_NO = 999
REV_AT_EPOCH   = 399
BSTAR          = -.20335E-3
MEAN_MOTION_DOT = -.116E-5
MEAN_MOTION_DDOT = 0

CCSDS_OMM_VERS = 2.0
CREATION_DATE  = 
ORIGINATOR     = 

OBJECT_NAME    = CZ-6A R/B
OBJECT_ID      = 2025-220F
CENTER_NAME    = EARTH
REF_FRAME      = TEME
TIME_SYSTEM    = UTC
MEAN_ELEMENT_THEORY = SGP/SGP4

EPOCH          = 2025-10-26T06:49:50.469888
MEAN_MOTION    = 13.94173109
ECCENTRICITY   = .01049057
INCLINATION    = 86.5050
RA_OF_ASC_NODE = 122.5287
ARG_OF_PERICENTER = 27.4297
MEAN_ANOMALY   = 333.2359

EPHEMERIS_TYPE = 0
CLASSIFICATION_TYPE = U
NORAD_CAT_ID   = 65822
ELEMENT_SET_NO = 999
REV_AT_EPOCH   = 401
BSTAR          = .48480632E-4
MEAN_MOTION_DOT = .85E-6
MEAN_MOTION_DDOT = 0

CCSDS_OMM_VERS = 2.0
CREATION_DATE  = 
ORIGINATOR     = 

OBJECT_NAME    = STARLINK-35392
OBJECT_ID      = 2025-221A
CENTER_NAME    = EARTH
REF_FRAME      = TEME
TIME_SYSTEM    = UTC
MEAN_ELEMENT_THEORY = SGP/SGP4

EPOCH          = 2025-10-26T03:48:21.032064
MEAN_MOTION    = 15.49357962
ECCENTRICITY   = .00012888
INCLINATION    = 53.1597
RA_OF_ASC_NODE = 354.8260
ARG_OF_PERICENTER = 101.5118
MEAN_ANOMALY   = 258.6035

EPHEMERIS_TYPE = 0
CLASSIFICATION_TYPE = U
NORAD_CAT_ID   = 65823
ELEMENT_SET_NO = 999
REV_AT_EPOCH   = 546
BSTAR          = .16095482E-2
MEAN_MOTION_DOT = .90265E-3
MEAN_MOTION_DDOT = 0

CCSDS_OMM_VERS = 2.0
CREATION_DATE  = 
ORIGINATOR     = 

OBJECT_NAME    = STARLINK-35281
OBJECT_ID      = 2025-221B
CENTER_NAME    = EARTH
REF_FRAME      = TEME
TIME_SYSTEM    = UTC
MEAN_ELEMENT_THEORY = SGP/SGP4

EPOCH          = 2025-10-26T13:05:12.395040
MEAN_MOTION    = 15.49342518
ECCENTRICITY   = .00013
INCLINATION    = 53.1597
RA_OF_ASC_NODE = 352.9715
ARG_OF_PERICENTER = 93.6078
MEAN_ANOMALY   = 266.5080

EPHEMERIS_TYPE = 0
CLASSIFICATION_TYPE = U
NORAD_CAT_ID   = 65824
ELEMENT_SET_NO = 999
REV_AT_EPOCH   = 552
BSTAR          = .84328E-3
MEAN_MOTION_DOT = .46788E-3
MEAN_MOTION_DDOT = 0

CCSDS_OMM_VERS = 2.0
CREATION_DATE  = 
ORIGINATOR     = 

OBJECT_NAME    = STARLINK-35397
OBJECT_ID      = 2025-221C
CENTER_NAME    = EARTH
REF_FRAME      = TEME
TIME_SYSTEM    = UTC
MEAN_ELEMENT_THEORY = SGP/SGP4

EPOCH          = 2025-10-26T13:04:13.255968
MEAN_MOTION    = 15.49318940
ECCENTRICITY   = .0001564
INCLINATION    = 53.1599
RA_OF_ASC_NODE = 352.9675
ARG_OF_PERICENTER = 92.6356
MEAN_ANOMALY   = 267.4832

EPHEMERIS_TYPE = 0
CLASSIFICATION_TYPE = U
NORAD_CAT_ID   = 65825
ELEMENT_SET_NO = 999
REV_AT_EPOCH   = 552
BSTAR          = .13165E-2
MEAN_MOTION_DOT = .7349E-3
MEAN_MOTION_DDOT = 0

CCSDS_OMM_VERS = 2.0
CREATION_DATE  = 
ORIGINATOR     = 

OBJECT_NAME    = STARLINK-35381
OBJECT_ID      = 2025-221D
CENTER_NAME    = EARTH
REF_FRAME      = TEME
TIME_SYSTEM    = UTC
MEAN_ELEMENT_THEORY = SGP/SGP4

EPOCH          = 2025-10-26T13:04:42.851424
MEAN_MOTION    = 15.49308074
ECCENTRICITY   = .0001381
INCLINATION    = 53.1599
RA_OF_ASC_NODE = 352.9687
ARG_OF_PERICENTER = 79.6359
MEAN_ANOMALY   = 280.4806

EPHEMERIS_TYPE = 0
CLASSIFICATION_TYPE = U
NORAD_CAT_ID   = 65826
ELEMENT_SET_NO = 999
REV_AT_EPOCH   = 552
BSTAR          = .83045E-3
MEAN_MOTION_DOT = .46009E-3
MEAN_MOTION_DDOT = 0

CCSDS_OMM_VERS = 2.0
CREATION_DATE  = 
ORIGINATOR     = 

OBJECT_NAME    = STARLINK-35393
OBJECT_ID      = 2025-221E
CENTER_NAME    = EARTH
REF_FRAME      = TEME
TIME_SYSTEM    = UTC
MEAN_ELEMENT_THEORY = SGP/SGP4

EPOCH          = 2025-10-26T11:26:52.449216
MEAN_MOTION    = 15.49353735
ECCENTRICITY   = .000102
INCLINATION    = 53.1598
RA_OF_ASC_NODE = 353.2537
ARG_OF_PERICENTER = 118.6924
MEAN_ANOMALY   = 241.4188

EPHEMERIS_TYPE = 0
CLASSIFICATION_TYPE = U
NORAD_CAT_ID   = 65827
ELEMENT_SET_NO = 999
REV_AT_EPOCH   = 551
BSTAR          = .1575E-2
MEAN_MOTION_DOT = .88279E-3
MEAN_MOTION_DDOT = 0

CCSDS_OMM_VERS = 2.0
CREATION_DATE  = 
ORIGINATOR     = 

OBJECT_NAME    = STARLINK-35396
OBJECT_ID      = 2025-221F
CENTER_NAME    = EARTH
REF_FRAME      = TEME
TIME_SYSTEM    = UTC
MEAN_ELEMENT_THEORY = SGP/SGP4

EPOCH          = 2025-10-26T13:03:43.499808
MEAN_MOTION    = 15.49319309
ECCENTRICITY   = .00016
INCLINATION    = 53.1598
RA_OF_ASC_NODE = 352.9650
ARG_OF_PERICENTER = 101.7633
MEAN_ANOMALY   = 258.3556

EPHEMERIS_TYPE = 0
CLASSIFICATION_TYPE = U
NORAD_CAT_ID   = 65828
ELEMENT_SET_NO = 999
REV_AT_EPOCH   = 552
BSTAR          = .11041E-2
MEAN_MOTION_DOT = .61467E-3
MEAN_MOTION_DDOT = 0

