HULIANWANG DIGUI-82     
1 65817U 25220A   25298.01180041 -.00000099  00000+0 -17251-3 0  9997
2 65817  86.4924 123.4946 0001396 121.8177 238.3110 13.53147382  3757
HULIANWANG DIGUI-83     
1 65818U 25220B   25299.04449432 -.00000105  00000+0 -18702-3 0  9994
2 65818  86.4958 123.1357 0001746  95.6080 264.5268 13.51070516  3890
HULIANWANG DIGUI-84     
1 65819U 25220C   25298.88838920 -.00000121  00000+0 -20739-3 0  9991
2 65819  86.4888 123.1598 0001288 101.2510 258.8785 13.52537739  3877
HULIANWANG DIGUI-85     
1 65820U 25220D   25298.88723145 -.00000124  00000+0 -21504-3 0  9999
2 65820  86.4944 123.1835 0001975 147.1096 213.0177 13.51672650  3876
HULIANWANG DIGUI-86     
1 65821U 25220E   25299.76860293 -.00000116  00000+0 -20335-3 0  9996
2 65821  86.4921 122.8557 0000946  96.9060 263.2196 13.51057899  3991
CZ-6A R/B               
1 65822U 25220F   25299.28461192  .00000085  00000+0  48481-4 0  9995
2 65822  86.5050 122.5287 0104905  27.4297 333.2359 13.94173109  4017
STARLINK-35392          
1 65823U 25221A   25299.15857676  .00090265  00000+0  16095-2 0  9992
2 65823  53.1597 354.8260 0001288 101.5118 258.6035 15.49357962  5465
STARLINK-35281          
1 65824U 25221B   25299.54528235  .00046788  00000+0  84328-3 0  9998
2 65824  53.1597 352.9715 0001300  93.6078 266.5080 15.49342518  5527
STARLINK-35397          
1 65825U 25221C   25299.54459787  .00073490  00000+0  13165-2 0  9994
2 65825  53.1599 352.9675 0001564  92.6356 267.4832 15.49318940  5522
STARLINK-35381          
1 65826U 25221D   25299.54494041  .00046009  00000+0  83045-3 0  9998
2 65826  53.1599 352.9687 0001381  79.6359 280.4806 15.49308074  5524
STARLINK-35393          
1 65827U 25221E   25299.47699594  .00088279  00000+0  15750-2 0  9993
2 65827  53.1598 353.2537 0001020 118.6924 241.4188 15.49353735  5517
STARLINK-35396          
1 65828U 25221F   25299.54425347  .00061467  00000+0  11041-2 0  9994
2 65828  53.1598 352.9650 0001600 101.7633 258.3556 15.49319309  5520
